[
  {
    "COMMENT": "GENERATED VIA SPACETRACK.ORG API",
    "ORIGINATOR": "18 SPCS",
    "NORAD_CAT_ID": "26997",
    "OBJECT_NAME": "JASON",
    "OBJECT_TYPE": "PAYLOAD",
    "CLASSIFICATION_TYPE": "U",
    "INTLDES": "01055A",
    "EPOCH": "2023-04-05 03:12:12",
    "EPOCH_MICROSECONDS": "807648",
    "MEAN_MOTION": "12.8401914",
    "ECCENTRICITY": "0.0007143",
    "INCLINATION": "66.0434",
    "RA_OF_ASC_NODE": "355.8025",
    "ARG_OF_PERICENTER": "264.0486",
    "MEAN_ANOMALY": "201.0854",
    "EPHEMERIS_TYPE": "0",
    "ELEMENT_SET_NO": "999",
    "REV_AT_EPOCH": "99877",
    "BSTAR": "0.000089396",
    "MEAN_MOTION_DOT": "-0.0000004",
    "MEAN_MOTION_DDOT": "0",
    "FILE": "3880313",
    "TLE_LINE0": "0 JASON",
    "TLE_LINE1": "1 26997U 01055A   23095.13348157 -.00000040  00000-0  89396-4 0  9999",
    "TLE_LINE2": "2 26997  66.0434 355.8025 0007143 264.0486 201.0854 12.84019140998771",
    "OBJECT_ID": "2001-055A",
    "OBJECT_NUMBER": "26997",
    "SEMIMAJOR_AXIS": "7703.490",
    "PERIOD": "112.148",
    "APOGEE": "1330.857",
    "PERIGEE": "1319.852",
    "DECAYED": "0"
  },
  {
    "COMMENT": "GENERATED VIA SPACETRACK.ORG API",
    "ORIGINATOR": "18 SPCS",
    "NORAD_CAT_ID": "26997",
    "OBJECT_NAME": "JASON",
    "OBJECT_TYPE": "PAYLOAD",
    "CLASSIFICATION_TYPE": "U",
    "INTLDES": "01055A",
    "EPOCH": "2023-04-05 03:12:12",
    "EPOCH_MICROSECONDS": "807648",
    "MEAN_MOTION": "12.8401914",
    "ECCENTRICITY": "0.0007143",
    "INCLINATION": "66.0434",
    "RA_OF_ASC_NODE": "355.8025",
    "ARG_OF_PERICENTER": "264.0486",
    "MEAN_ANOMALY": "201.0854",
    "EPHEMERIS_TYPE": "0",
    "ELEMENT_SET_NO": "999",
    "REV_AT_EPOCH": "99853",
    "BSTAR": "0.000089396",
    "MEAN_MOTION_DOT": "-0.0000004",
    "MEAN_MOTION_DDOT": "0",
    "FILE": "3880853",
    "TLE_LINE0": "0 JASON",
    "TLE_LINE1": "1 26997U 01055A   23095.13348157 -.00000040  00000-0  89396-4 0  9999",
    "TLE_LINE2": "2 26997  66.0434 355.8025 0007143 264.0486 201.0854 12.84019140998535",
    "OBJECT_ID": "2001-055A",
    "OBJECT_NUMBER": "26997",
    "SEMIMAJOR_AXIS": "7703.490",
    "PERIOD": "112.148",
    "APOGEE": "1330.857",
    "PERIGEE": "1319.852",
    "DECAYED": "0"
  },
  {
    "COMMENT": "GENERATED VIA SPACETRACK.ORG API",
    "ORIGINATOR": "18 SPCS",
    "NORAD_CAT_ID": "26997",
    "OBJECT_NAME": "JASON",
    "OBJECT_TYPE": "PAYLOAD",
    "CLASSIFICATION_TYPE": "U",
    "INTLDES": "01055A",
    "EPOCH": "2023-04-05 21:44:19",
    "EPOCH_MICROSECONDS": "714272",
    "MEAN_MOTION": "12.84019216",
    "ECCENTRICITY": "0.0007136",
    "INCLINATION": "66.0434",
    "RA_OF_ASC_NODE": "354.1894",
    "ARG_OF_PERICENTER": "264.0961",
    "MEAN_ANOMALY": "170.6295",
    "EPHEMERIS_TYPE": "0",
    "ELEMENT_SET_NO": "999",
    "REV_AT_EPOCH": "99863",
    "BSTAR": "0.00011089",
    "MEAN_MOTION_DOT": "-0.00000035",
    "MEAN_MOTION_DDOT": "0",
    "FILE": "3881153",
    "TLE_LINE0": "0 JASON",
    "TLE_LINE1": "1 26997U 01055A   23095.90578373 -.00000035  00000-0  11089-3 0  9996",
    "TLE_LINE2": "2 26997  66.0434 354.1894 0007136 264.0961 170.6295 12.84019216998636",
    "OBJECT_ID": "2001-055A",
    "OBJECT_NUMBER": "26997",
    "SEMIMAJOR_AXIS": "7703.489",
    "PERIOD": "112.148",
    "APOGEE": "1330.852",
    "PERIGEE": "1319.857",
    "DECAYED": "0"
  },
  {
    "COMMENT": "GENERATED VIA SPACETRACK.ORG API",
    "ORIGINATOR": "18 SPCS",
    "NORAD_CAT_ID": "26997",
    "OBJECT_NAME": "JASON",
    "OBJECT_TYPE": "PAYLOAD",
    "CLASSIFICATION_TYPE": "U",
    "INTLDES": "01055A",
    "EPOCH": "2023-04-06 03:44:50",
    "EPOCH_MICROSECONDS": "685216",
    "MEAN_MOTION": "12.84019232",
    "ECCENTRICITY": "0.000714",
    "INCLINATION": "66.0434",
    "RA_OF_ASC_NODE": "353.6665",
    "ARG_OF_PERICENTER": "264.1324",
    "MEAN_ANOMALY": "247.7534",
    "EPHEMERIS_TYPE": "0",
    "ELEMENT_SET_NO": "999",
    "REV_AT_EPOCH": "99866",
    "BSTAR": "0.00012374",
    "MEAN_MOTION_DOT": "-0.00000032",
    "MEAN_MOTION_DDOT": "0",
    "FILE": "3881771",
    "TLE_LINE0": "0 JASON",
    "TLE_LINE1": "1 26997U 01055A   23096.15614219 -.00000032  00000-0  12374-3 0  9999",
    "TLE_LINE2": "2 26997  66.0434 353.6665 0007140 264.1324 247.7534 12.84019232998668",
    "OBJECT_ID": "2001-055A",
    "OBJECT_NUMBER": "26997",
    "SEMIMAJOR_AXIS": "7703.489",
    "PERIOD": "112.148",
    "APOGEE": "1330.855",
    "PERIGEE": "1319.854",
    "DECAYED": "0"
  },
  {
    "COMMENT": "GENERATED VIA SPACETRACK.ORG API",
    "ORIGINATOR": "18 SPCS",
    "NORAD_CAT_ID": "26997",
    "OBJECT_NAME": "JASON",
    "OBJECT_TYPE": "PAYLOAD",
    "CLASSIFICATION_TYPE": "U",
    "INTLDES": "01055A",
    "EPOCH": "2023-04-07 04:04:07",
    "EPOCH_MICROSECONDS": "303872",
    "MEAN_MOTION": "12.84019322",
    "ECCENTRICITY": "0.0007134",
    "INCLINATION": "66.0432",
    "RA_OF_ASC_NODE": "351.5499",
    "ARG_OF_PERICENTER": "264.1831",
    "MEAN_ANOMALY": "251.5911",
    "EPHEMERIS_TYPE": "0",
    "ELEMENT_SET_NO": "999",
    "REV_AT_EPOCH": "99903",
    "BSTAR": "0.00014821",
    "MEAN_MOTION_DOT": "-0.00000026",
    "MEAN_MOTION_DDOT": "0",
    "FILE": "3882117",
    "TLE_LINE0": "0 JASON",
    "TLE_LINE1": "1 26997U 01055A   23097.16952898 -.00000026  00000-0  14821-3 0  9991",
    "TLE_LINE2": "2 26997  66.0432 351.5499 0007134 264.1831 251.5911 12.84019322999038",
    "OBJECT_ID": "2001-055A",
    "OBJECT_NUMBER": "26997",
    "SEMIMAJOR_AXIS": "7703.489",
    "PERIOD": "112.148",
    "APOGEE": "1330.850",
    "PERIGEE": "1319.858",
    "DECAYED": "0"
  },
  {
    "COMMENT": "GENERATED VIA SPACETRACK.ORG API",
    "ORIGINATOR": "18 SPCS",
    "NORAD_CAT_ID": "26997",
    "OBJECT_NAME": "JASON",
    "OBJECT_TYPE": "PAYLOAD",
    "CLASSIFICATION_TYPE": "U",
    "INTLDES": "01055A",
    "EPOCH": "2023-04-08 04:25:40",
    "EPOCH_MICROSECONDS": "881216",
    "MEAN_MOTION": "12.84019315",
    "ECCENTRICITY": "0.0007112",
    "INCLINATION": "66.0431",
    "RA_OF_ASC_NODE": "349.43",
    "ARG_OF_PERICENTER": "264.157",
    "MEAN_ANOMALY": "262.832",
    "EPHEMERIS_TYPE": "0",
    "ELEMENT_SET_NO": "999",
    "REV_AT_EPOCH": "99892",
    "BSTAR": "0.00012524",
    "MEAN_MOTION_DOT": "-0.00000031",
    "MEAN_MOTION_DDOT": "0",
    "FILE": "3883527",
    "TLE_LINE0": "0 JASON",
    "TLE_LINE1": "1 26997U 01055A   23098.18450094 -.00000031  00000-0  12524-3 0  9999",
    "TLE_LINE2": "2 26997  66.0431 349.4300 0007112 264.1570 262.8320 12.84019315998928",
    "OBJECT_ID": "2001-055A",
    "OBJECT_NUMBER": "26997",
    "SEMIMAJOR_AXIS": "7703.489",
    "PERIOD": "112.148",
    "APOGEE": "1330.833",
    "PERIGEE": "1319.875",
    "DECAYED": "0"
  },
  {
    "COMMENT": "GENERATED VIA SPACETRACK.ORG API",
    "ORIGINATOR": "18 SPCS",
    "NORAD_CAT_ID": "26997",
    "OBJECT_NAME": "JASON",
    "OBJECT_TYPE": "PAYLOAD",
    "CLASSIFICATION_TYPE": "U",
    "INTLDES": "01055A",
    "EPOCH": "2023-04-09 02:47:09",
    "EPOCH_MICROSECONDS": "923712",
    "MEAN_MOTION": "12.84019354",
    "ECCENTRICITY": "0.0007096",
    "INCLINATION": "66.0429",
    "RA_OF_ASC_NODE": "347.4842",
    "ARG_OF_PERICENTER": "264.1437",
    "MEAN_ANOMALY": "248.6505",
    "EPHEMERIS_TYPE": "0",
    "ELEMENT_SET_NO": "999",
    "REV_AT_EPOCH": "99904",
    "BSTAR": "0.0001107",
    "MEAN_MOTION_DOT": "-0.00000035",
    "MEAN_MOTION_DDOT": "0",
    "FILE": "3884332",
    "TLE_LINE0": "0 JASON",
    "TLE_LINE1": "1 26997U 01055A   23099.11608708 -.00000035  00000-0  11070-3 0  9999",
    "TLE_LINE2": "2 26997  66.0429 347.4842 0007096 264.1437 248.6505 12.84019354999041",
    "OBJECT_ID": "2001-055A",
    "OBJECT_NUMBER": "26997",
    "SEMIMAJOR_AXIS": "7703.489",
    "PERIOD": "112.148",
    "APOGEE": "1330.820",
    "PERIGEE": "1319.888",
    "DECAYED": "0"
  },
  {
    "COMMENT": "GENERATED VIA SPACETRACK.ORG API",
    "ORIGINATOR": "18 SPCS",
    "NORAD_CAT_ID": "26997",
    "OBJECT_NAME": "JASON",
    "OBJECT_TYPE": "PAYLOAD",
    "CLASSIFICATION_TYPE": "U",
    "INTLDES": "01055A",
    "EPOCH": "2023-04-09 17:16:30",
    "EPOCH_MICROSECONDS": "762336",
    "MEAN_MOTION": "12.84019436",
    "ECCENTRICITY": "0.000709",
    "INCLINATION": "66.0428",
    "RA_OF_ASC_NODE": "346.2233",
    "ARG_OF_PERICENTER": "264.1671",
    "MEAN_ANOMALY": "158.9999",
    "EPHEMERIS_TYPE": "0",
    "ELEMENT_SET_NO": "999",
    "REV_AT_EPOCH": "99936",
    "BSTAR": "0.00010996",
    "MEAN_MOTION_DOT": "-0.00000035",
    "MEAN_MOTION_DDOT": "0",
    "FILE": "3884406",
    "TLE_LINE0": "0 JASON",
    "TLE_LINE1": "1 26997U 01055A   23099.71980049 -.00000035  00000-0  10996-3 0  9992",
    "TLE_LINE2": "2 26997  66.0428 346.2233 0007090 264.1671 158.9999 12.84019436999361",
    "OBJECT_ID": "2001-055A",
    "OBJECT_NUMBER": "26997",
    "SEMIMAJOR_AXIS": "7703.489",
    "PERIOD": "112.148",
    "APOGEE": "1330.815",
    "PERIGEE": "1319.892",
    "DECAYED": "0"
  },
  {
    "COMMENT": "GENERATED VIA SPACETRACK.ORG API",
    "ORIGINATOR": "18 SPCS",
    "NORAD_CAT_ID": "26997",
    "OBJECT_NAME": "JASON",
    "OBJECT_TYPE": "PAYLOAD",
    "CLASSIFICATION_TYPE": "U",
    "INTLDES": "01055A",
    "EPOCH": "2023-04-09 22:36:37",
    "EPOCH_MICROSECONDS": "167840",
    "MEAN_MOTION": "12.84019461",
    "ECCENTRICITY": "0.000709",
    "INCLINATION": "66.0428",
    "RA_OF_ASC_NODE": "345.759",
    "ARG_OF_PERICENTER": "264.1742",
    "MEAN_ANOMALY": "106.45",
    "EPHEMERIS_TYPE": "0",
    "ELEMENT_SET_NO": "999",
    "REV_AT_EPOCH": "99915",
    "BSTAR": "0.00011856",
    "MEAN_MOTION_DOT": "-0.00000033",
    "MEAN_MOTION_DDOT": "0",
    "FILE": "3884641",
    "TLE_LINE0": "0 JASON",
    "TLE_LINE1": "1 26997U 01055A   23099.94209685 -.00000033  00000-0  11856-3 0  9991",
    "TLE_LINE2": "2 26997  66.0428 345.7590 0007090 264.1742 106.4500 12.84019461999151",
    "OBJECT_ID": "2001-055A",
    "OBJECT_NUMBER": "26997",
    "SEMIMAJOR_AXIS": "7703.488",
    "PERIOD": "112.148",
    "APOGEE": "1330.815",
    "PERIGEE": "1319.892",
    "DECAYED": "0"
  }
]